[
  { "zipcode": "100", "city": "台北市", "district": "中正區" },
  { "zipcode": "103", "city": "台北市", "district": "大同區" },
  { "zipcode": "104", "city": "台北市", "district": "中山區" },
  { "zipcode": "105", "city": "台北市", "district": "松山區" },
  { "zipcode": "106", "city": "台北市", "district": "大安區" },
  { "zipcode": "110", "city": "台北市", "district": "信義區" },
  { "zipcode": "111", "city": "台北市", "district": "士林區" },
  { "zipcode": "112", "city": "台北市", "district": "北投區" },
  { "zipcode": "114", "city": "台北市", "district": "內湖區" },
  { "zipcode": "115", "city": "台北市", "district": "南港區" },
  { "zipcode": "116", "city": "台北市", "district": "文山區" },
  { "zipcode": "200", "city": "基隆市", "district": "仁愛區" },
  { "zipcode": "201", "city": "基隆市", "district": "信義區" },
  { "zipcode": "202", "city": "基隆市", "district": "中正區" },
  { "zipcode": "203", "city": "基隆市", "district": "中山區" },
  { "zipcode": "204", "city": "基隆市", "district": "安樂區" },
  { "zipcode": "205", "city": "基隆市", "district": "暖暖區" },
  { "zipcode": "206", "city": "基隆市", "district": "七堵區" },
  { "zipcode": "207", "city": "新北市", "district": "萬里區" },
  { "zipcode": "208", "city": "新北市", "district": "金山區" },
  { "zipcode": "220", "city": "新北市", "district": "板橋區" },
  { "zipcode": "221", "city": "新北市", "district": "汐止區" },
  { "zipcode": "222", "city": "新北市", "district": "深坑區" },
  { "zipcode": "223", "city": "新北市", "district": "石碇區" },
  { "zipcode": "224", "city": "新北市", "district": "坪林區" },
  { "zipcode": "226", "city": "新北市", "district": "烏來區" },
  { "zipcode": "227", "city": "新北市", "district": "永和區" },
  { "zipcode": "231", "city": "新北市", "district": "中和區" },
  { "zipcode": "232", "city": "新北市", "district": "土城區" },
  { "zipcode": "234", "city": "新北市", "district": "三峽區" },
  { "zipcode": "238", "city": "新北市", "district": "鶯歌區" },
  { "zipcode": "239", "city": "新北市", "district": "樹林區" },
  { "zipcode": "241", "city": "新北市", "district": "三重區" },
  { "zipcode": "242", "city": "新北市", "district": "新莊區" },
  { "zipcode": "243", "city": "新北市", "district": "泰山區" },
  { "zipcode": "244", "city": "新北市", "district": "林口區" },
  { "zipcode": "247", "city": "新北市", "district": "蘆洲區" },
  { "zipcode": "248", "city": "新北市", "district": "五股區" },
  { "zipcode": "249", "city": "新北市", "district": "八里區" },
  { "zipcode": "251", "city": "新北市", "district": "淡水區" },
  { "zipcode": "252", "city": "新北市", "district": "汐止區" },
  { "zipcode": "303", "city": "桃園市", "district": "中壢區" },
  { "zipcode": "304", "city": "桃園市", "district": "平鎮區" },
  { "zipcode": "305", "city": "桃園市", "district": "八德區" },
  { "zipcode": "306", "city": "桃園市", "district": "楊梅區" },
  { "zipcode": "320", "city": "新竹市", "district": "東區" },
  { "zipcode": "321", "city": "新竹市", "district": "北區" },
  { "zipcode": "300", "city": "新竹縣", "district": "竹北市" },
  { "zipcode": "302", "city": "新竹縣", "district": "湖口鄉" },
  { "zipcode": "303", "city": "新竹縣", "district": "新豐鄉" },
  { "zipcode": "304", "city": "新竹縣", "district": "新埔鎮" },
  { "zipcode": "305", "city": "新竹縣", "district": "關西鎮" },
  { "zipcode": "306", "city": "新竹縣", "district": "芎林鄉" },
  { "zipcode": "307", "city": "新竹縣", "district": "寶山鄉" },
  { "zipcode": "308", "city": "新竹縣", "district": "竹東鎮" },
  { "zipcode": "310", "city": "新竹縣", "district": "橫山鄉" },
  { "zipcode": "311", "city": "新竹縣", "district": "北埔鄉" },
  { "zipcode": "312", "city": "新竹縣", "district": "峨眉鄉" },
  { "zipcode": "320", "city": "苗栗縣", "district": "竹南鎮" },
  { "zipcode": "321", "city": "苗栗縣", "district": "頭份市" },
  { "zipcode": "322", "city": "苗栗縣", "district": "三灣鄉" },
  { "zipcode": "323", "city": "苗栗縣", "district": "南庄鄉" },
  { "zipcode": "324", "city": "苗栗縣", "district": "獅潭鄉" },
  { "zipcode": "325", "city": "苗栗縣", "district": "後龍鎮" },
  { "zipcode": "326", "city": "苗栗縣", "district": "通霄鎮" },
  { "zipcode": "327", "city": "苗栗縣", "district": "苑裡鎮" },
  { "zipcode": "328", "city": "苗栗縣", "district": "苗栗市" },
  { "zipcode": "330", "city": "苗栗縣", "district": "造橋鄉" },
  { "zipcode": "331", "city": "苗栗縣", "district": "三義鄉" },
  { "zipcode": "332", "city": "苗栗縣", "district": "西湖鄉" },
  { "zipcode": "333", "city": "苗栗縣", "district": "卓蘭鎮" },
  { "zipcode": "350", "city": "台中市", "district": "中區" },
  { "zipcode": "400", "city": "台中市", "district": "南區" },
  { "zipcode": "401", "city": "台中市", "district": "東區" },
  { "zipcode": "402", "city": "台中市", "district": "北區" },
  { "zipcode": "403", "city": "台中市", "district": "西區" },
  { "zipcode": "404", "city": "台中市", "district": "南屯區" },
  { "zipcode": "406", "city": "台中市", "district": "北屯區" },
  { "zipcode": "407", "city": "台中市", "district": "西屯區" },
  { "zipcode": "408", "city": "台中市", "district": "南區" },
  { "zipcode": "411", "city": "台中市", "district": "太平區" },
  { "zipcode": "412", "city": "台中市", "district": "大里區" },
  { "zipcode": "413", "city": "台中市", "district": "霧峰區" },
  { "zipcode": "414", "city": "台中市", "district": "烏日區" },
  { "zipcode": "420", "city": "台中市", "district": "豐原區" },
  { "zipcode": "421", "city": "台中市", "district": "東勢區" },
  { "zipcode": "422", "city": "台中市", "district": "大雅區" },
  { "zipcode": "423", "city": "台中市", "district": "新社區" },
  { "zipcode": "424", "city": "台中市", "district": "石岡區" },
  { "zipcode": "426", "city": "台中市", "district": "外埔區" },
  { "zipcode": "427", "city": "台中市", "district": "和平區" },
  { "zipcode": "428", "city": "台中市", "district": "大安區" },
  { "zipcode": "500", "city": "台南市", "district": "中西區" },
  { "zipcode": "501", "city": "台南市", "district": "東區" },
  { "zipcode": "502", "city": "台南市", "district": "南區" },
  { "zipcode": "504", "city": "台南市", "district": "北區" },
  { "zipcode": "700", "city": "台南市", "district": "安南區" },
  { "zipcode": "701", "city": "台南市", "district": "安平區" },
  { "zipcode": "702", "city": "台南市", "district": "中區" },
  { "zipcode": "704", "city": "台南市", "district": "東區" },
  { "zipcode": "705", "city": "台南市", "district": "南區" },
  { "zipcode": "706", "city": "台南市", "district": "北區" },
  { "zipcode": "801", "city": "高雄市", "district": "新興區" },
  { "zipcode": "802", "city": "高雄市", "district": "前金區" },
  { "zipcode": "803", "city": "高雄市", "district": "苓雅區" },
  { "zipcode": "804", "city": "高雄市", "district": "鹽埕區" },
  { "zipcode": "805", "city": "高雄市", "district": "鼓山區" },
  { "zipcode": "806", "city": "高雄市", "district": "旗津區" },
  { "zipcode": "807", "city": "高雄市", "district": "前鎮區" },
  { "zipcode": "811", "city": "高雄市", "district": "三民區" },
  { "zipcode": "812", "city": "高雄市", "district": "楠梓區" },
  { "zipcode": "813", "city": "高雄市", "district": "小港區" },
  { "zipcode": "814", "city": "高雄市", "district": "左營區" },
  { "zipcode": "815", "city": "高雄市", "district": "仁武區" },
  { "zipcode": "820", "city": "高雄市", "district": "大社區" },
  { "zipcode": "821", "city": "高雄市", "district": "岡山區" },
  { "zipcode": "822", "city": "高雄市", "district": "路竹區" },
  { "zipcode": "823", "city": "高雄市", "district": "阿蓮區" },
  { "zipcode": "824", "city": "高雄市", "district": "田寮區" },
  { "zipcode": "825", "city": "高雄市", "district": "燕巢區" },
  { "zipcode": "826", "city": "高雄市", "district": "橋頭區" },
  { "zipcode": "827", "city": "高雄市", "district": "梓官區" },
  { "zipcode": "828", "city": "高雄市", "district": "彌陀區" },
  { "zipcode": "829", "city": "高雄市", "district": "永安區" },
  { "zipcode": "830", "city": "高雄市", "district": "湖內區" },
  { "zipcode": "831", "city": "高雄市", "district": "鳳山區" },
  { "zipcode": "832", "city": "高雄市", "district": "大寮區" },
  { "zipcode": "833", "city": "高雄市", "district": "林園區" },
  { "zipcode": "840", "city": "高雄市", "district": "旗山區" },
  { "zipcode": "842", "city": "高雄市", "district": "美濃區" },
  { "zipcode": "843", "city": "高雄市", "district": "六龜區" },
  { "zipcode": "844", "city": "高雄市", "district": "甲仙區" },
  { "zipcode": "845", "city": "高雄市", "district": "杉林區" },
  { "zipcode": "846", "city": "高雄市", "district": "內門區" },
  { "zipcode": "847", "city": "高雄市", "district": "茂林區" },
  { "zipcode": "848", "city": "高雄市", "district": "桃源區" },
  { "zipcode": "849", "city": "高雄市", "district": "那瑪夏區" },
  { "zipcode": "900", "city": "屏東縣", "district": "屏東市" },
  { "zipcode": "901", "city": "屏東縣", "district": "內埔鄉" },
  { "zipcode": "902", "city": "屏東縣", "district": "竹田鄉" },
  { "zipcode": "903", "city": "屏東縣", "district": "萬丹鄉" },
  { "zipcode": "904", "city": "屏東縣", "district": "潮州鎮" },
  { "zipcode": "906", "city": "屏東縣", "district": "泰武鄉" },
  { "zipcode": "907", "city": "屏東縣", "district": "來義鄉" },
  { "zipcode": "908", "city": "屏東縣", "district": "萬巒鄉" },
  { "zipcode": "909", "city": "屏東縣", "district": "新園鄉" },
  { "zipcode": "911", "city": "屏東縣", "district": "崁頂鄉" },
  { "zipcode": "912", "city": "屏東縣", "district": "林邊鄉" },
  { "zipcode": "913", "city": "屏東縣", "district": "南州鄉" },
  { "zipcode": "920", "city": "台東縣", "district": "台東市" },
  { "zipcode": "921", "city": "台東縣", "district": "成功鎮" },
  { "zipcode": "922", "city": "台東縣", "district": "長濱鄉" },
  { "zipcode": "923", "city": "台東縣", "district": "卑南鄉" },
  { "zipcode": "924", "city": "台東縣", "district": "鹿野鄉" },
  { "zipcode": "925", "city": "台東縣", "district": "關山鎮" },
  { "zipcode": "926", "city": "台東縣", "district": "海端鄉" },
  { "zipcode": "927", "city": "台東縣", "district": "池上鄉" },
  { "zipcode": "928", "city": "台東縣", "district": "延平鄉" },
  { "zipcode": "930", "city": "花蓮縣", "district": "花蓮市" },
  { "zipcode": "931", "city": "花蓮縣", "district": "新城鄉" },
  { "zipcode": "932", "city": "花蓮縣", "district": "秀林鄉" },
  { "zipcode": "933", "city": "花蓮縣", "district": "吉安鄉" },
  { "zipcode": "934", "city": "花蓮縣", "district": "壽豐鄉" },
  { "zipcode": "935", "city": "花蓮縣", "district": "鳳林鎮" },
  { "zipcode": "936", "city": "花蓮縣", "district": "光復鄉" },
  { "zipcode": "937", "city": "花蓮縣", "district": "豐濱鄉" },
  { "zipcode": "938", "city": "花蓮縣", "district": "瑞穗鄉" },
  { "zipcode": "940", "city": "宜蘭縣", "district": "宜蘭市" },
  { "zipcode": "941", "city": "宜蘭縣", "district": "頭城鎮" },
  { "zipcode": "942", "city": "宜蘭縣", "district": "礁溪鄉" },
  { "zipcode": "943", "city": "宜蘭縣", "district": "壯圍鄉" },
  { "zipcode": "944", "city": "宜蘭縣", "district": "員山鄉" },
  { "zipcode": "945", "city": "宜蘭縣", "district": "羅東鎮" },
  { "zipcode": "946", "city": "宜蘭縣", "district": "三星鄉" },
  { "zipcode": "947", "city": "宜蘭縣", "district": "大同鄉" },
  { "zipcode": "948", "city": "宜蘭縣", "district": "五結鄉" },
  { "zipcode": "950", "city": "宜蘭縣", "district": "冬山鄉" },
  { "zipcode": "951", "city": "宜蘭縣", "district": "蘇澳鎮" },
  { "zipcode": "952", "city": "宜蘭縣", "district": "南澳鄉" },
  { "zipcode": "880", "city": "澎湖縣", "district": "馬公市" },
  { "zipcode": "881", "city": "澎湖縣", "district": "湖西鄉" },
  { "zipcode": "882", "city": "澎湖縣", "district": "白沙鄉" },
  { "zipcode": "883", "city": "澎湖縣", "district": "望安鄉" },
  { "zipcode": "884", "city": "澎湖縣", "district": "七美鄉" },
  { "zipcode": "950", "city": "金門縣", "district": "金沙鎮" },
  { "zipcode": "951", "city": "金門縣", "district": "金湖鎮" },
  { "zipcode": "952", "city": "金門縣", "district": "金寧鄉" },
  { "zipcode": "953", "city": "金門縣", "district": "烈嶼鄉" },
  { "zipcode": "954", "city": "金門縣", "district": "烏坵鄉" },
  { "zipcode": "950", "city": "連江縣", "district": "南竿鄉" },
  { "zipcode": "951", "city": "連江縣", "district": "北竿鄉" },
  { "zipcode": "952", "city": "連江縣", "district": "莒光鄉" },
  { "zipcode": "953", "city": "連江縣", "district": "東引鄉" }
]